NORAD_CAT_ID,OBJECT_NAME,OBJECT_TYPE,EPOCH,MEAN_MOTION,ECCENTRICITY,INCLINATION,RA_OF_ASC_NODE,ARG_OF_PERICENTER,MEAN_ANOMALY,BSTAR,MEAN_MOTION_DOT,MEAN_MOTION_DDOT,TLE_LINE0,TLE_LINE1,TLE_LINE2,SEMIMAJOR_AXIS,PERIOD,APOGEE,PERIGEE,DECAYED
54188.0,STARLINK-5238,PAYLOAD,2023-09-19 18:02:27,15.08850964,0.000135,53.2168,83.2337,96.0561,264.0585,0.00022421,3.283e-05,0.0,0 STARLINK-5238,1 54188U 22141AH  23262.75170624  .00003283  00000-0  22421-3 0  9993,2 54188  53.2168  83.2337 0001350  96.0561 264.0585 15.08850964 50062,6917.847,95.437,540.646,538.778,0.0
54188.0,STARLINK-5238,PAYLOAD,2023-09-19 22:48:36,15.08859896,0.000135,53.2171,82.3417,94.637,265.4777,0.00036314,5.499e-05,0.0,0 STARLINK-5238,1 54188U 22141AH  23262.95042143  .00005499  00000-0  36314-3 0  9996,2 54188  53.2171  82.3417 0001350  94.6370 265.4777 15.08859896 50091,6917.82,95.436,540.618,538.751,0.0
54188.0,STARLINK-5238,PAYLOAD,2023-09-20 17:53:14,15.08841005,0.0001237,53.2162,78.773,104.8758,255.2371,5.7215e-05,6.23e-06,0.0,0 STARLINK-5238,1 54188U 22141AH  23263.74531062  .00000623  00000-0  57215-4 0  9995,2 54188  53.2162  78.7730 0001237 104.8758 255.2371 15.08841005 50210,6917.877,95.437,540.598,538.887,0.0
54188.0,STARLINK-5238,PAYLOAD,2023-09-20 21:04:01,15.08840938,0.0001123,53.216,78.1784,103.2358,256.8759,4.3875e-05,4.11e-06,0.0,0 STARLINK-5238,1 54188U 22141AH  23263.87778996  .00000411  00000-0  43875-4 0  9990,2 54188  53.2160  78.1784 0001123 103.2358 256.8759 15.08840938 50002,6917.878,95.437,540.519,538.966,0.0
54188.0,STARLINK-5238,PAYLOAD,2023-09-21 11:22:29,15.08836678,0.0001285,53.2162,75.5028,73.9838,286.1295,0.00042019,6.405e-05,0.0,0 STARLINK-5238,1 54188U 22141AH  23264.47395598  .00006405  00000-0  42019-3 0  9997,2 54188  53.2162  75.5028 0001285  73.9838 286.1295 15.08836678 50097,6917.891,95.438,540.644,538.867,0.0
54188.0,STARLINK-5238,PAYLOAD,2023-09-21 17:44:02,15.08840126,0.0001351,53.2165,74.3139,70.7503,289.3635,0.00044743,6.84e-05,0.0,0 STARLINK-5238,1 54188U 22141AH  23264.73891631  .00006840  00000-0  44743-3 0  9994,2 54188  53.2165  74.3139 0001351  70.7503 289.3635 15.08840126 50364,6917.88,95.438,540.68,538.81,0.0
54188.0,STARLINK-5238,PAYLOAD,2023-09-22 04:51:44,15.08843875,0.0001415,53.2168,72.2326,71.7996,288.3151,0.0006853,0.00010637,0.0,0 STARLINK-5238,1 54188U 22141AH  23265.20259637  .00010637  00000-0  68530-3 0  9990,2 54188  53.2168  72.2326 0001415  71.7996 288.3151 15.08843875 50209,6917.869,95.437,540.712,538.755,0.0
54188.0,STARLINK-5238,PAYLOAD,2023-09-22 20:45:35,15.08855235,0.0001314,53.217,69.2575,78.0991,282.0148,0.00048483,7.44e-05,0.0,0 STARLINK-5238,1 54188U 22141AH  23265.86499081  .00007440  00000-0  48483-3 0  9994,2 54188  53.2170  69.2575 0001314  78.0991 282.0148 15.08855235 50308,6917.834,95.437,540.608,538.79,0.0
54188.0,STARLINK-5238,PAYLOAD,2023-09-22 22:20:58,15.08858486,0.0001374,53.2172,68.96,78.7358,281.3789,0.00053314,8.211e-05,0.0,0 STARLINK-5238,1 54188U 22141AH  23265.93122953  .00008211  00000-0  53314-3 0  9999,2 54188  53.2172  68.9600 0001374  78.7358 281.3789 15.08858486 50545,6917.824,95.436,540.639,538.738,0.0
54188.0,STARLINK-5238,PAYLOAD,2023-09-23 17:25:36,15.08848221,0.0001274,53.2174,65.3916,83.9456,276.1682,0.00032345,4.865e-05,0.0,0 STARLINK-5238,1 54188U 22141AH  23266.72611212  .00004865  00000-0  32345-3 0  9990,2 54188  53.2174  65.3916 0001274  83.9456 276.1682 15.08848221 50667,6917.855,95.437,540.602,538.839,0.0
54188.0,STARLINK-5238,PAYLOAD,2023-09-24 10:54:50,15.08843209,0.0001388,53.2173,62.1186,85.9888,274.1263,0.0002057,2.988e-05,0.0,0 STARLINK-5238,1 54188U 22141AH  23267.45475285  .00002988  00000-0  20570-3 0  9990,2 54188  53.2173  62.1186 0001388  85.9888 274.1263 15.08843209 50773,6917.871,95.437,540.696,538.775,0.0
54188.0,STARLINK-5238,PAYLOAD,2023-09-24 14:05:37,15.08840515,0.000135,53.217,61.5243,86.7116,273.4031,0.00010539,1.39e-05,0.0,0 STARLINK-5238,1 54188U 22141AH  23267.58723420  .00001390  00000-0  10539-3 0  9991,2 54188  53.2170  61.5243 0001350  86.7116 273.4031 15.08840515 50568,6917.879,95.438,540.678,538.81,0.0
54188.0,STARLINK-5238,PAYLOAD,2023-09-24 17:16:23,15.08844994,0.0001371,53.2173,60.9294,88.7597,271.3552,0.00010197,1.336e-05,0.0,0 STARLINK-5238,1 54188U 22141AH  23267.71971241  .00001336  00000-0  10197-3 0  9992,2 54188  53.2173  60.9294 0001371  88.7597 271.3552 15.08844994 50580,6917.865,95.437,540.679,538.782,0.0
54188.0,STARLINK-5238,PAYLOAD,2023-09-25 09:10:14,15.08840221,0.0001283,53.2175,57.9574,88.5128,271.6011,6.6491e-05,7.7e-06,0.0,0 STARLINK-5238,1 54188U 22141AH  23268.38211399  .00000770  00000-0  66491-4 0  9997,2 54188  53.2175  57.9574 0001283  88.5128 271.6011 15.08840221 50918,6917.88,95.438,540.632,538.857,0.0
54188.0,STARLINK-5238,PAYLOAD,2023-09-25 17:07:09,15.08856983,0.0001187,53.2166,56.4708,92.2741,267.8387,0.00068564,0.00010646,0.0,0 STARLINK-5238,1 54188U 22141AH  23268.71330924  .00010646  00000-0  68564-3 0  9995,2 54188  53.2166  56.4708 0001187  92.2741 267.8387 15.08856983 50967,6917.828,95.436,540.515,538.872,0.0
54188.0,STARLINK-5238,PAYLOAD,2023-09-25 20:17:56,15.08869383,0.0001299,53.2173,55.8758,99.7581,260.3558,0.0013474,0.00021238,0.0,0 STARLINK-5238,1 54188U 22141AH  23268.84578711  .00021238  00000-0  13474-2 0  9995,2 54188  53.2173  55.8758 0001299  99.7581 260.3558 15.08869383 50754,6917.791,95.436,540.554,538.757,0.0
54188.0,STARLINK-5238,PAYLOAD,2023-09-26 13:47:11,15.08844683,0.0001394,53.2171,52.6038,101.361,258.7539,0.00052902,8.142e-05,0.0,0 STARLINK-5238,1 54188U 22141AH  23269.57443475  .00008142  00000-0  52902-3 0  9993,2 54188  53.2171  52.6038 0001394 101.3610 258.7539 15.08844683 50865,6917.866,95.437,540.695,538.767,0.0
54188.0,STARLINK-5238,PAYLOAD,2023-09-26 16:57:57,15.08836574,0.0001278,53.2168,52.0094,117.3066,242.8057,0.0011815,0.00018564,0.0,0 STARLINK-5238,1 54188U 22141AH  23269.70691608  .00018564  00000-0  11815-2 0  9997,2 54188  53.2168  52.0094 0001278 117.3066 242.8057 15.08836574 51118,6917.891,95.438,540.64,538.872,0.0
54188.0,STARLINK-5238,PAYLOAD,2023-09-27 02:30:16,15.08834165,0.000161,53.218,50.2251,82.9986,277.1189,0.00046504,7.12e-05,0.0,0 STARLINK-5238,1 54188U 22141AH  23270.10436120  .00007120  00000-0  46504-3 0  9999,2 54188  53.2180  50.2251 0001610  82.9986 277.1189 15.08834165 51172,6917.898,95.438,540.877,538.649,0.0
54188.0,STARLINK-5238,PAYLOAD,2023-09-28 08:42:36,15.08844546,0.0001896,53.2164,44.579,66.1982,293.9208,0.00028983,4.328e-05,0.0,0 STARLINK-5238,1 54188U 22141AH  23271.36292163  .00004328  00000-0  28983-3 0  9993,2 54188  53.2164  44.5790 0001896  66.1982 293.9208 15.08844546 51367,6917.866,95.437,541.043,538.42,0.0
54188.0,STARLINK-5238,PAYLOAD,2023-09-28 15:04:09,15.08841314,0.0001653,53.2175,43.389,65.6021,294.5143,0.00017765,2.54e-05,0.0,0 STARLINK-5238,1 54188U 22141AH  23271.62788240  .00002540  00000-0  17765-3 0  9998,2 54188  53.2175  43.3890 0001653  65.6021 294.5143 15.08841314 51170,6917.876,95.437,540.885,538.598,0.0
54188.0,STARLINK-5238,PAYLOAD,2023-09-28 16:39:32,15.08845292,0.000155,53.2175,43.0905,69.2896,290.8262,0.00026145,3.876e-05,0.0,0 STARLINK-5238,1 54188U 22141AH  23271.69412059  .00003876  00000-0  26145-3 0  9992,2 54188  53.2175  43.0905 0001550  69.2896 290.8262 15.08845292 51181,6917.864,95.437,540.801,538.657,0.0
54188.0,STARLINK-5238,PAYLOAD,2023-09-29 13:19:32,15.08844683,0.0001221,53.2187,39.2228,125.5633,234.5473,0.00014894,2.084e-05,0.0,0 STARLINK-5238,1 54188U 22141AH  23272.55523764  .00002084  00000-0  14894-3 0  9992,2 54188  53.2187  39.2228 0001221 125.5633 234.5473 15.08844683 51316,6917.866,95.437,540.576,538.886,0.0
54188.0,STARLINK-5238,PAYLOAD,2023-09-29 14:54:55,15.08847878,0.0001586,53.2188,38.9247,69.916,290.2003,0.00018635,2.68e-05,0.0,0 STARLINK-5238,1 54188U 22141AH  23272.62147947  .00002680  00000-0  18635-3 0  9994,2 54188  53.2188  38.9247 0001586  69.9160 290.2003 15.08847878 51557,6917.856,95.437,540.818,538.624,0.0
54188.0,STARLINK-5238,PAYLOAD,2023-09-30 02:02:37,15.08866095,0.0001411,53.2189,36.8427,82.5865,277.5287,0.00068282,0.00010603,0.0,0 STARLINK-5238,1 54188U 22141AH  23273.08515094  .00010603  00000-0  68282-3 0  9994,2 54188  53.2189  36.8427 0001411  82.5865 277.5287 15.08866095 51627,6917.801,95.436,540.642,538.69,0.0
54188.0,STARLINK-5238,PAYLOAD,2023-09-30 17:56:29,15.08851607,0.0001665,53.2182,33.8693,94.3058,265.8125,0.00095938,0.00015018,0.0,0 STARLINK-5238,1 54188U 22141AH  23273.74755794  .00015018  00000-0  95938-3 0  9993,2 54188  53.2182  33.8693 0001665  94.3058 265.8125 15.08851607 51723,6917.845,95.437,540.862,538.558,0.0
54188.0,STARLINK-5238,PAYLOAD,2023-10-01 11:25:43,15.08851906,0.0001812,53.2181,30.5958,108.2363,251.8827,0.00097107,0.00015205,0.0,0 STARLINK-5238,1 54188U 22141AH  23274.47619501  .00015205  00000-0  97107-3 0  9997,2 54188  53.2181  30.5958 0001812 108.2363 251.8827 15.08851906 51836,6917.844,95.437,540.963,538.455,0.0
54188.0,STARLINK-5238,PAYLOAD,2023-10-01 14:36:29,15.08855733,0.0001632,53.2193,30.0059,93.5159,266.6019,0.0010488,0.0001645,0.0,0 STARLINK-5238,1 54188U 22141AH  23274.60867472  .00016450  00000-0  10488-2 0  9993,2 54188  53.2193  30.0059 0001632  93.5159 266.6019 15.08855733 51621,6917.832,95.437,540.826,538.568,0.0
54188.0,STARLINK-5238,PAYLOAD,2023-10-02 11:16:30,15.08836311,0.0002133,53.2187,26.1381,113.135,246.9867,0.00013547,1.868e-05,0.0,0 STARLINK-5238,1 54188U 22141AH  23275.46979755  .00001868  00000-0  13547-3 0  9993,2 54188  53.2187  26.1381 0002133 113.1350 246.9867 15.08836311 51989,6917.892,95.438,541.232,538.281,0.0
54188.0,STARLINK-5238,PAYLOAD,2023-10-02 19:13:26,15.08847452,0.0001597,53.219,24.6512,90.0842,270.0333,0.00018099,2.594e-05,0.0,0 STARLINK-5238,1 54188U 22141AH  23275.80099579  .00002594  00000-0  18099-3 0  9992,2 54188  53.2190  24.6512 0001597  90.0842 270.0333 15.08847452 51809,6917.858,95.437,540.827,538.618,0.0
